*******************************************************************************
 Revised: January 23, 2020             Saturn                               699
 
 PHYSICAL DATA (updated 2020-Jan-03):
  Mass x10^26 (kg)      = 5.6834          Density (g/cm^3)       =  0.687+-.001
  Equat. radius (1 bar) = 60268+-4 km     Polar radius (km)      = 54364+-10
  Vol. Mean Radius (km) = 58232+-6        Flattening             =  0.09796
  Geometric Albedo      = 0.47            Rocky core mass (Mc/M) =  0.1027
  Sid. rot. period (III)= 10h 39m 22.4s   Sid. rot. rate (rad/s) =  0.000163785 
  Mean solar day, hrs   =~10.656         
  GM (km^3/s^2)         = 37931206.159    GM 1-sigma (km^3/s^2)  = +- 98
  Equ. grav, ge (m/s^2) = 10.44           Pol. grav, gp (m/s^2)  = 12.14+-0.01
  Vis. magnitude V(1,0) = -8.88          
  Vis. mag. (opposition)= +0.67           Obliquity to orbit     = 26.73 deg
  Sidereal orbit period = 29.447498 yr    Sidereal orbit period  = 10755.698 d
  Mean daily motion     = 0.0334979 deg/d Mean orbit velocity    =  9.68 km/s
  Atmos. temp. (1 bar)  = 134+-4 K        Escape speed, km/s    =  35.5          
  Aroche(ice)/Rp        =  2.71           Hill's sphere rad. Rp  = 1100
                                 Perihelion  Aphelion    Mean
  Solar Constant (W/m^2)         16.8        13.6        15.1
  Maximum Planetary IR (W/m^2)    4.7         4.5         4.6
  Minimum Planetary IR (W/m^2)    4.7         4.5         4.6
*******************************************************************************
 
 
*******************************************************************************
Ephemeris / WWW_USER Fri Jun 19 18:06:11 2020 Pasadena, USA      / Horizons
*******************************************************************************
Target body name: Saturn (699)                    {source: sat427l_merged_DE438}
Center body name: Solar System Barycenter (0)     {source: DE431mx}
Center-site name: BODY CENTER
*******************************************************************************
Start time      : A.D. 1969-Jun-28 00:00:00.0000 TDB
Stop  time      : A.D. 2071-May-04 00:00:00.0000 TDB
Step-size       : 7200 minutes
*******************************************************************************
Center geodetic : 0.00000000,0.00000000,0.0000000 {E-lon(deg),Lat(deg),Alt(km)}
Center cylindric: 0.00000000,0.00000000,0.0000000 {E-lon(deg),Dxy(km),Dz(km)}
Center radii    : (undefined)                                                  
Output units    : AU-D
Output type     : GEOMETRIC cartesian states
Output format   : 2 (position and velocity)
Reference frame : Ecliptic of J2000.0
*******************************************************************************
            JDTDB,            Calendar Date (TDB),        delta-T,                      X,                      Y,                      Z,                     VX,                     VY,                     VZ,
******************************************************************************************************************************************************************************************************************
$$SOE
2472240.500000000, A.D. 2056-Aug-30 00:00:00.0000,      69.182643,  8.962629337642849E+00,  2.732077897512454E+00, -4.043529004346584E-01, -1.924605162276366E-03,  5.328797757270596E-03, -1.571917623064771E-05,
2472245.500000000, A.D. 2056-Sep-04 00:00:00.0000,      69.182564,  8.952963770232566E+00,  2.758711483667226E+00, -4.044304174581448E-01, -1.941786588510547E-03,  5.324314145620799E-03, -1.510976670641420E-05,
2472250.500000000, A.D. 2056-Sep-09 00:00:00.0000,      69.182496,  8.943213435085672E+00,  2.785317963117464E+00, -4.045026551035796E-01, -1.957906606375749E-03,  5.318185633380195E-03, -1.378620711990834E-05,
2472255.500000000, A.D. 2056-Sep-14 00:00:00.0000,      69.182440,  8.933387294376780E+00,  2.811896475818024E+00, -4.045701946277259E-01, -1.972756131913814E-03,  5.313565673901704E-03, -1.339081746559320E-05,
2472260.500000000, A.D. 2056-Sep-19 00:00:00.0000,      69.182393,  8.923481896289420E+00,  2.838454384976331E+00, -4.046365981129355E-01, -1.989676079630086E-03,  5.309284695729516E-03, -1.298561536543700E-05,
2472265.500000000, A.D. 2056-Sep-24 00:00:00.0000,      69.182357,  8.913491194382575E+00,  2.864986044743050E+00, -4.046984764110975E-01, -2.006204789884379E-03,  5.303170134907932E-03, -1.170198476612111E-05,
2472270.500000000, A.D. 2056-Sep-29 00:00:00.0000,      69.182332,  8.903423379087767E+00,  2.891487792320687E+00, -4.047548911475747E-01, -2.020903241314789E-03,  5.297978146133587E-03, -1.110092037289138E-05,
2472275.500000000, A.D. 2056-Oct-04 00:00:00.0000,      69.182321,  8.893278347021891E+00,  2.917967499665790E+00, -4.048100015060420E-01, -2.037441016186405E-03,  5.293764190086716E-03, -1.084151295047665E-05,
2472280.500000000, A.D. 2056-Oct-09 00:00:00.0000,      69.182323,  8.883048140257625E+00,  2.944421926029229E+00, -4.048614611063014E-01, -2.054331457391711E-03,  5.287727148020033E-03, -9.633904456283705E-06,
2472285.500000000, A.D. 2056-Oct-14 00:00:00.0000,      69.182338,  8.872739135530976E+00,  2.970845100607155E+00, -4.049069604214340E-01, -2.069112848582560E-03,  5.281935295690860E-03, -8.788033532710181E-06,
2472290.500000000, A.D. 2056-Oct-19 00:00:00.0000,      69.182364,  8.862354604761773E+00,  2.997244211012298E+00, -4.049506442566011E-01, -2.085182578828278E-03,  5.277672242164647E-03, -8.622294332934342E-06,
2472295.500000000, A.D. 2056-Oct-24 00:00:00.0000,      69.182401,  8.851885716695518E+00,  3.023618872438194E+00, -4.049915457770764E-01, -2.102257337151625E-03,  5.271834581472377E-03, -7.570256294524969E-06,
2472300.500000000, A.D. 2056-Oct-29 00:00:00.0000,      69.182449,  8.841336214816854E+00,  3.049961600757402E+00, -4.050263124103393E-01, -2.117225742152325E-03,  5.265531688086843E-03, -6.514078369920082E-06,
2472305.500000000, A.D. 2056-Nov-03 00:00:00.0000,      69.182511,  8.830712250809638E+00,  3.076277857768522E+00, -4.050584917289650E-01, -2.132769240764836E-03,  5.261058440012884E-03, -6.364862713334716E-06,
2472310.500000000, A.D. 2056-Nov-08 00:00:00.0000,      69.182585,  8.820005350705433E+00,  3.102570198361686E+00, -4.050886656617501E-01, -2.149925688086778E-03,  5.255463122489525E-03, -5.501440542019783E-06,
2472315.500000000, A.D. 2056-Nov-13 00:00:00.0000,      69.182670,  8.809216181038186E+00,  3.128830555782740E+00, -4.051128741962623E-01, -2.165289372099484E-03,  5.248797748087574E-03, -4.291860902089808E-06,
2472320.500000000, A.D. 2056-Nov-18 00:00:00.0000,      69.182763,  8.798352866813335E+00,  3.155061856444824E+00, -4.051335608110571E-01, -2.180396381856348E-03,  5.243990986478592E-03, -4.088332001549209E-06,
2472325.500000000, A.D. 2056-Nov-23 00:00:00.0000,      69.182865,  8.787408494559129E+00,  3.181269240428778E+00, -4.051527946839248E-01, -2.197472461651653E-03,  5.238643635337314E-03, -3.433612407685732E-06,
2472330.500000000, A.D. 2056-Nov-28 00:00:00.0000,      69.182975,  8.776380571180697E+00,  3.207445078664496E+00, -4.051665240037273E-01, -2.213252091189848E-03,  5.231723692459497E-03, -2.124049774211223E-06,
2472335.500000000, A.D. 2056-Dec-03 00:00:00.0000,      69.183095,  8.765278055276699E+00,  3.233589388479229E+00, -4.051757803198742E-01, -2.227996232528749E-03,  5.226383240756939E-03, -1.755269596646711E-06,
2472340.500000000, A.D. 2056-Dec-08 00:00:00.0000,      69.183222,  8.754096648506279E+00,  3.259709171068320E+00, -4.051838524697429E-01, -2.244837499629206E-03,  5.221206436336415E-03, -1.284358443041617E-06,
2472345.500000000, A.D. 2056-Dec-13 00:00:00.0000,      69.183356,  8.742831021514235E+00,  3.285798200169575E+00, -4.051871242194809E-01, -2.261034813301314E-03,  5.214216620396449E-03,  3.054643858888663E-08,
2472350.500000000, A.D. 2056-Dec-18 00:00:00.0000,      69.183493,  8.731489724580969E+00,  3.311853603702664E+00, -4.051850991296154E-01, -2.275562685548936E-03,  5.208331574627952E-03,  5.849349186502741E-07,
2472355.500000000, A.D. 2056-Dec-23 00:00:00.0000,      69.183632,  8.720071695467405E+00,  3.337883217071063E+00, -4.051818189848831E-01, -2.292001137926831E-03,  5.203297067362659E-03,  8.700192241842575E-07,
2472360.500000000, A.D. 2056-Dec-28 00:00:00.0000,      69.183775,  8.708569415102543E+00,  3.363883048196410E+00, -4.051745946897038E-01, -2.308539063168670E-03,  5.196378562967501E-03,  2.110700480383422E-06,
2472365.500000000, A.D. 2057-Jan-02 00:00:00.0000,      69.183921,  8.696989898705695E+00,  3.389847753337709E+00, -4.051615026259060E-01, -2.323080164080185E-03,  5.189901382516252E-03,  2.899295967760956E-06,
2472370.500000000, A.D. 2057-Jan-07 00:00:00.0000,      69.184069,  8.685335500689538E+00,  3.415784819933960E+00, -4.051467474780666E-01, -2.339090700800121E-03,  5.184854234677108E-03,  3.076645333918051E-06,
2472375.500000000, A.D. 2057-Jan-12 00:00:00.0000,      69.184215,  8.673597507778995E+00,  3.441693010501658E+00, -4.051289353218033E-01, -2.355912525101175E-03,  5.178104049954242E-03,  4.188082073083172E-06,
2472380.500000000, A.D. 2057-Jan-17 00:00:00.0000,      69.184359,  8.661780510445972E+00,  3.467565194457766E+00, -4.051049794982480E-01, -2.370633535270526E-03,  5.171099170271216E-03,  5.194955336807621E-06,
2472385.500000000, A.D. 2057-Jan-22 00:00:00.0000,      69.184498,  8.649889920299673E+00,  3.493407400033207E+00, -4.050786423689596E-01, -2.386096071011821E-03,  5.165879849427230E-03,  5.334958555827995E-06,
2472390.500000000, A.D. 2057-Jan-27 00:00:00.0000,      69.184634,  8.637917021498014E+00,  3.519221360169059E+00, -4.050500583546084E-01, -2.402995708791349E-03,  5.159329980162760E-03,  6.280190698889998E-06,
2472395.500000000, A.D. 2057-Feb-01 00:00:00.0000,      69.184767,  8.625863436890588E+00,  3.544999086824702E+00, -4.050154028674650E-01, -2.418025920777554E-03,  5.151892279014780E-03,  7.469261014046696E-06,
